{"type": "FeatureCollection", "features": [ {"type": "Feature", "properties": {"norad_id": 66574, "name": "STARLINK-35812", "group": "last-30-days", "lat": 38.88440996581898, "lon": 154.677482092768, "alt_km": 464.00186757943356, "timestamp": "2025-12-27T13:34:48.004783+00:00", "meta": {"OBJECT_NAME": "STARLINK-35812", "OBJECT_ID": "2025-268T", "EPOCH": "2025-12-27T08:00:01.999872", "MEAN_MOTION": 15.3315527, "ECCENTRICITY": 9.215e-05, "INCLINATION": 43.0005, "RA_OF_ASC_NODE": 35.9301, "ARG_OF_PERICENTER": 282.989, "MEAN_ANOMALY": 345.7305, "EPHEMERIS_TYPE": 0, "CLASSIFICATION_TYPE": "U", "NORAD_CAT_ID": 66574, "ELEMENT_SET_NO": 999, "REV_AT_EPOCH": 608, "BSTAR": -0.0680982, "MEAN_MOTION_DOT": -0.02014757, "MEAN_MOTION_DDOT": 0}, "tle": {"line1": "1 66574U 25268T   25361.33335648 -.02014757  00000+0 -68098-1 0  9992", "line2": "2 66574  43.0005  35.9301 0000921 282.9890 345.7305 15.33155270  6086"}}, "geometry": {"type": "Point", "coordinates": [154.677482092768, 38.88440996581898]}}, {"type": "Feature", "properties": {"norad_id": 66575, "name": "STARLINK-35810", "group": "last-30-days", "lat": 31.029597233775128, "lon": 174.3562922357119, "alt_km": 462.59488907324067, "timestamp": "2025-12-27T13:34:48.004793+00:00", "meta": {"OBJECT_NAME": "STARLINK-35810", "OBJECT_ID": "2025-268U", "EPOCH": "2025-12-27T08:00:01.999872", "MEAN_MOTION": 15.33999953, "ECCENTRICITY": 9.924e-05, "INCLINATION": 43.0003, "RA_OF_ASC_NODE": 35.8883, "ARG_OF_PERICENTER": 276.3791, "MEAN_ANOMALY": 9.5363, "EPHEMERIS_TYPE": 0, "CLASSIFICATION_TYPE": "U", "NORAD_CAT_ID": 66575, "ELEMENT_SET_NO": 999, "REV_AT_EPOCH": 608, "BSTAR": -0.066700917, "MEAN_MOTION_DOT": -0.02026196, "MEAN_MOTION_DDOT": 0}, "tle": {"line1": "1 66575U 25268U   25361.33335648 -.02026196  00000+0 -66701-1 0  9992", "line2": "2 66575  43.0003  35.8883 0000992 276.3791   9.5363 15.33999953  6087"}}, "geometry": {"type": "Point", "coordinates": [174.3562922357119, 31.029597233775128]}}, {"type": "Feature", "properties": {"norad_id": 66576, "name": "STARLINK-35814", "group": "last-30-days", "lat": 21.033151105768532, "lon": -169.85103272112033, "alt_km": 461.49062015004347, "timestamp": "2025-12-27T13:34:48.004803+00:00", "meta": {"OBJECT_NAME": "STARLINK-35814", "OBJECT_ID": "2025-268V", "EPOCH": "2025-12-27T08:00:01.999872", "MEAN_MOTION": 15.34837201, "ECCENTRICITY": 0.00010333, "INCLINATION": 42.9995, "RA_OF_ASC_NODE": 35.8477, "ARG_OF_PERICENTER": 260.5248, "MEAN_ANOMALY": 42.0305, "EPHEMERIS_TYPE": 0, "CLASSIFICATION_TYPE": "U", "NORAD_CAT_ID": 66576, "ELEMENT_SET_NO": 999, "REV_AT_EPOCH": 607, "BSTAR": -0.065096729, "MEAN_MOTION_DOT": -0.02030863, "MEAN_MOTION_DDOT": 0}, "tle": {"line1": "1 66576U 25268V   25361.33335648 -.02030863  00000+0 -65097-1 0  9996", "line2": "2 66576  42.9995  35.8477 0001033 260.5248  42.0305 15.34837201  6079"}}, "geometry": {"type": "Point", "coordinates": [-169.85103272112033, 21.033151105768532]}}, {"type": "Feature", "properties": {"norad_id": 66577, "name": "STARLINK-35815", "group": "last-30-days", "lat": 3.0154239081741268, "lon": -148.78709106242405, "alt_km": 459.76152817296224, "timestamp": "2025-12-27T13:34:48.004814+00:00", "meta": {"OBJECT_NAME": "STARLINK-35815", "OBJECT_ID": "2025-268W", "EPOCH": "2025-12-27T06:00:02.000160", "MEAN_MOTION": 15.36657779, "ECCENTRICITY": 9.766e-05, "INCLINATION": 43.0009, "RA_OF_ASC_NODE": 36.2607, "ARG_OF_PERICENTER": 287.2312, "MEAN_ANOMALY": 299.9339, "EPHEMERIS_TYPE": 0, "CLASSIFICATION_TYPE": "U", "NORAD_CAT_ID": 66577, "ELEMENT_SET_NO": 999, "REV_AT_EPOCH": 607, "BSTAR": -0.06040501, "MEAN_MOTION_DOT": -0.0196946, "MEAN_MOTION_DDOT": 0}, "tle": {"line1": "1 66577U 25268W   25361.25002315 -.01969460  00000+0 -60405-1 0  9991", "line2": "2 66577  43.0009  36.2607 0000976 287.2312 299.9339 15.36657779  6073"}}, "geometry": {"type": "Point", "coordinates": [-148.78709106242405, 3.0154239081741268]}}, {"type": "Feature", "properties": {"norad_id": 66578, "name": "STARLINK-35743", "group": "last-30-days", "lat": -7.731912707090411, "lon": -137.20772860586598, "alt_km": 458.5771685812406, "timestamp": "2025-12-27T13:34:48.004824+00:00", "meta": {"OBJECT_NAME": "STARLINK-35743", "OBJECT_ID": "2025-268X", "EPOCH": "2025-12-27T06:00:02.000160", "MEAN_MOTION": 15.37514791, "ECCENTRICITY": 7.016e-05, "INCLINATION": 43.0009, "RA_OF_ASC_NODE": 36.2242, "ARG_OF_PERICENTER": 300.7528, "MEAN_ANOMALY": 301.2603, "EPHEMERIS_TYPE": 0, "CLASSIFICATION_TYPE": "U", "NORAD_CAT_ID": 66578, "ELEMENT_SET_NO": 999, "REV_AT_EPOCH": 600, "BSTAR": -0.060367055, "MEAN_MOTION_DOT": -0.02017952, "MEAN_MOTION_DDOT": 0}, "tle": {"line1": "1 66578U 25268X   25361.25002315 -.02017952  00000+0 -60367-1 0  9990", "line2": "2 66578  43.0009  36.2242 0000701 300.7528 301.2603 15.37514791  6006"}}, "geometry": {"type": "Point", "coordinates": [-137.20772860586598, -7.731912707090411]}}, {"type": "Feature", "properties": {"norad_id": 66579, "name": "STARLINK-35868", "group": "last-30-days", "lat": -17.786964860234296, "lon": -125.48567321549677, "alt_km": 456.8005211767131, "timestamp": "2025-12-27T13:34:48.004837+00:00", "meta": {"OBJECT_NAME": "STARLINK-35868", "OBJECT_ID": "2025-268Y", "EPOCH": "2025-12-27T06:00:02.000160", "MEAN_MOTION": 15.38364284, "ECCENTRICITY": 7.723e-05, "INCLINATION": 43.0007, "RA_OF_ASC_NODE": 36.1892, "ARG_OF_PERICENTER": 281.2456, "MEAN_ANOMALY": 335.057, "EPHEMERIS_TYPE": 0, "CLASSIFICATION_TYPE": "U", "NORAD_CAT_ID": 66579, "ELEMENT_SET_NO": 999, "REV_AT_EPOCH": 606, "BSTAR": -0.059661373, "MEAN_MOTION_DOT": -0.02047204, "MEAN_MOTION_DDOT": 0}, "tle": {"line1": "1 66579U 25268Y   25361.25002315 -.02047204  00000+0 -59661-1 0  9999", "line2": "2 66579  43.0007  36.1892 0000772 281.2456 335.0570 15.38364284  6061"}}, "geometry": {"type": "Point", "coordinates": [-125.48567321549677, -17.786964860234296]}}, {"type": "Feature", "properties": {"norad_id": 66580, "name": "STARLINK-35872", "group": "last-30-days", "lat": -26.773608951109225, "lon": -112.87603623012913, "alt_km": 454.859896593779, "timestamp": "2025-12-27T13:34:48.004850+00:00", "meta": {"OBJECT_NAME": "STARLINK-35872", "OBJECT_ID": "2025-268Z", "EPOCH": "2025-12-27T06:00:02.000160", "MEAN_MOTION": 15.39228631, "ECCENTRICITY": 9.169e-05, "INCLINATION": 43.0003, "RA_OF_ASC_NODE": 36.1557, "ARG_OF_PERICENTER": 261.5407, "MEAN_ANOMALY": 8.57, "EPHEMERIS_TYPE": 0, "CLASSIFICATION_TYPE": "U", "NORAD_CAT_ID": 66580, "ELEMENT_SET_NO": 999, "REV_AT_EPOCH": 607, "BSTAR": -0.061404173, "MEAN_MOTION_DOT": -0.02192736, "MEAN_MOTION_DDOT": 0}, "tle": {"line1": "1 66580U 25268Z   25361.25002315 -.02192736  00000+0 -61404-1 0  9990", "line2": "2 66580  43.0003  36.1557 0000916 261.5407   8.5700 15.39228631  6078"}}, "geometry": {"type": "Point", "coordinates": [-112.87603623012913, -26.773608951109225]}}, {"type": "Feature", "properties": {"norad_id": 66581, "name": "STARLINK-35744", "group": "last-30-days", "lat": -34.14233863568, "lon": -98.99804001683783, "alt_km": 452.65441840004587, "timestamp": "2025-12-27T13:34:48.004861+00:00", "meta": {"OBJECT_NAME": "STARLINK-35744", "OBJECT_ID": "2025-268AA", "EPOCH": "2025-12-27T06:00:02.000160", "MEAN_MOTION": 15.40023259, "ECCENTRICITY": 8.292e-05, "INCLINATION": 43, "RA_OF_ASC_NODE": 36.1229, "ARG_OF_PERICENTER": 272.1833, "MEAN_ANOMALY": 11.0243, "EPHEMERIS_TYPE": 0, "CLASSIFICATION_TYPE": "U", "NORAD_CAT_ID": 66581, "ELEMENT_SET_NO": 999, "REV_AT_EPOCH": 607, "BSTAR": -0.055121782, "MEAN_MOTION_DOT": -0.02003853, "MEAN_MOTION_DDOT": 0}, "tle": {"line1": "1 66581U 25268AA  25361.25002315 -.02003853  00000+0 -55122-1 0  9992", "line2": "2 66581  43.0000  36.1229 0000829 272.1833  11.0243 15.40023259  6078"}}, "geometry": {"type": "Point", "coordinates": [-98.99804001683783, -34.14233863568]}}, {"type": "Feature", "properties": {"norad_id": 66582, "name": "STARLINK-35746", "group": "last-30-days", "lat": -41.65295715752248, "lon": -73.09153788541288, "alt_km": 448.53473091677097, "timestamp": "2025-12-27T13:34:48.004871+00:00", "meta": {"OBJECT_NAME": "STARLINK-35746", "OBJECT_ID": "2025-268AB", "EPOCH": "2025-12-27T06:00:02.000160", "MEAN_MOTION": 15.41483064, "ECCENTRICITY": 9.842e-05, "INCLINATION": 43.0005, "RA_OF_ASC_NODE": 36.0739, "ARG_OF_PERICENTER": 272.31, "MEAN_ANOMALY": 30.9868, "EPHEMERIS_TYPE": 0, "CLASSIFICATION_TYPE": "U", "NORAD_CAT_ID": 66582, "ELEMENT_SET_NO": 999, "REV_AT_EPOCH": 607, "BSTAR": -0.053095663, "MEAN_MOTION_DOT": -0.02024525, "MEAN_MOTION_DDOT": 0}, "tle": {"line1": "1 66582U 25268AB  25361.25002315 -.02024525  00000+0 -53096-1 0  9990", "line2": "2 66582  43.0005  36.0739 0000984 272.3100  30.9868 15.41483064  6078"}}, "geometry": {"type": "Point", "coordinates": [-73.09153788541288, -41.65295715752248]}}, {"type": "Feature", "properties": {"norad_id": 66583, "name": "STARLINK-35941", "group": "last-30-days", "lat": -42.97904763013061, "lon": -56.17078770153108, "alt_km": 445.9297704107739, "timestamp": "2025-12-27T13:34:48.004882+00:00", "meta": {"OBJECT_NAME": "STARLINK-35941", "OBJECT_ID": "2025-268AC", "EPOCH": "2025-12-27T06:00:02.000160", "MEAN_MOTION": 15.42303726, "ECCENTRICITY": 0.00012589, "INCLINATION": 43, "RA_OF_ASC_NODE": 36.0468, "ARG_OF_PERICENTER": 256.239, "MEAN_ANOMALY": 58.7124, "EPHEMERIS_TYPE": 0, "CLASSIFICATION_TYPE": "U", "NORAD_CAT_ID": 66583, "ELEMENT_SET_NO": 999, "REV_AT_EPOCH": 606, "BSTAR": -0.05143004, "MEAN_MOTION_DOT": -0.02017219, "MEAN_MOTION_DDOT": 0}, "tle": {"line1": "1 66583U 25268AC  25361.25002315 -.02017219  00000+0 -51430-1 0  9993", "line2": "2 66583  43.0000  36.0468 0001258 256.2390  58.7124 15.42303726  6069"}}, "geometry": {"type": "Point", "coordinates": [-56.17078770153108, -42.97904763013061]}}]}